satname,norad_id,inclination_deg,eccentricity,mean_motion_rev_per_day,perigee_km,apogee_km,l1,l2
STARLINK-1443,45660,53.0544,0.000148,15.06404358,546.1732517183491,548.2231509379426,1 45660U 20035D   25254.95163756  .00001724  00000+0  13458-3 0  9998,2 45660  53.0544 149.0075 0001480  98.1309 261.9848 15.06404358291795
STARLINK-1446,45663,53.0264,0.0007574,15.28347139,475.55804352466566,485.94789004635186,1 45663U 20035G   25254.90453558  .00043179  00000+0  15458-2 0  9999,2 45663  53.0264 120.8054 0007574  94.3890 265.7974 15.28347139292187
STARLINK-1448,45665,53.0526,7.9e-05,15.06415604,546.616635580468,547.7108330964929,1 45665U 20035J   25255.41975528  .00004440  00000+0  31664-3 0  9990,2 45665  53.0526 146.9023 0000790  92.4862 267.6217 15.06415604291859
STARLINK-1451,45668,53.0535,0.0001691,15.06393735,546.0596796393975,548.4018390156016,1 45668U 20035M   25255.42348057 -.00000144  00000+0  92087-5 0  9991,2 45668  53.0535 147.2050 0001691  92.1806 267.9376 15.06393735291862
STARLINK-1452,45669,53.0513,0.0004243,15.20970608,499.9919978592043,505.83125572389963,1 45669U 20035N   25254.83910296  .00027072  00000+0  12164-2 0  9999,2 45669  53.0513 136.8482 0004243 160.3110 199.8050 15.20970608291952
STARLINK-1453,45670,53.0553,8.95e-05,15.06380561,546.6513122860288,547.8909603424299,1 45670U 20035P   25254.83645639  .00003655  00000+0  26426-3 0  9995,2 45670  53.0553 119.5248 0000895  53.6388 306.4683 15.06380561292086
STARLINK-1454,45671,53.0557,0.0001521,15.06396117,546.1701114738025,548.2768061253701,1 45671U 20035Q   25254.91478569  .00001053  00000+0  89601-4 0  9996,2 45671  53.0557 149.1707 0001521  89.1508 270.9655 15.06396117291778
STARLINK-1456,45673,53.0536,0.0001529,15.06399726,546.1535117860312,548.2712836318515,1 45673U 20035S   25255.39394614 -.00000762  00000+0 -32275-4 0  9992,2 45673  53.0536 147.0194 0001529  91.8556 268.2608 15.06399726291862
STARLINK-1457,45674,53.0532,0.0001257,15.06399248,546.3433461074856,548.0843793143704,1 45674U 20035T   25255.40131722  .00001637  00000+0  12874-3 0  9996,2 45674  53.0532 146.9869 0001257  86.3024 273.8108 15.06399248291836
STARLINK-1458,45675,53.0553,0.0001382,15.06392818,546.2764836085853,548.1906560340849,1 45675U 20035U   25255.39026688 -.00000016  00000+0  17826-4 0  9993,2 45675  53.0553 147.0344 0001382  97.1543 262.9603 15.06392818291829
STARLINK-1460,45676,53.0524,8.56e-05,15.06401846,546.6130908676687,547.7987095721865,1 45676U 20035V   25255.42712008  .00003088  00000+0  22605-3 0  9997,2 45676  53.0524 146.8701 0000856 102.0229 258.0856 15.06401846291822
STARLINK-1392,45677,53.0547,6.1e-05,15.06403987,546.7768928678206,547.6217839011042,1 45677U 20035W   25255.43817485  .00000696  00000+0  65587-4 0  9993,2 45677  53.0547 146.8224 0000610  90.1458 269.9601 15.06403987291868
STARLINK-1394,45679,53.053,0.0001312,15.0640288,546.2941265944073,548.1113357398654,1 45679U 20035Y   25254.90464493  .00002811  00000+0  20749-3 0  9994,2 45679  53.0530 139.2158 0001312  90.3983 269.7156 15.06402880291920
STARLINK-1402,45685,53.0539,0.0001423,15.06404341,546.212778223884,548.1837286370101,1 45685U 20035AE  25254.93542038  .00001411  00000+0  11358-3 0  9997,2 45685  53.0539 133.4992 0001423  91.7282 268.3871 15.06404341292012
STARLINK-1404,45686,53.054,0.00014,15.06395777,546.2549502451702,548.1940514654098,1 45686U 20035AF  25255.39487960  .00000462  00000+0  49908-4 0  9999,2 45686  53.0540 137.0177 0001400  90.7255 269.3895 15.06395777292002
STARLINK-1413,45689,53.0535,0.0001273,15.0639729,546.3382657816665,548.1014616391676,1 45689U 20035AJ  25255.41330475  .00001777  00000+0  13819-3 0  9994,2 45689  53.0535 136.9299 0001273 102.4958 257.6174 15.06397290291912
STARLINK-1417,45693,53.0531,0.0001366,15.06399658,546.2666033630221,548.1586088754148,1 45693U 20035AN  25255.40961526  .00002645  00000+0  19642-3 0  9990,2 45693  53.0531 136.9523 0001366  83.5703 276.5441 15.06399658291998
STARLINK-1420,45695,53.0542,0.0001434,15.06390312,546.248151180971,548.2343496631929,1 45695U 20035AQ  25255.60955969  .00000482  00000+0  51276-4 0  9995,2 45695  53.0542 116.0428 0001434  90.5145 269.6008 15.06390312292316
STARLINK-1422,45696,53.0533,0.0001415,15.06407204,546.2095451070827,548.1694125005843,1 45696U 20035AR  25254.95624587  .00002845  00000+0  20976-3 0  9999,2 45696  53.0533 138.9872 0001415  89.7404 270.3748 15.06407204291925
STARLINK-1351,45697,53.0546,0.0001357,15.06395054,546.286944901035,548.1664886137632,1 45697U 20035AS  25254.93229004  .00000098  00000+0  25502-4 0  9992,2 45697  53.0546 119.0920 0001357  93.0365 267.0780 15.06395054292214
STARLINK-1398,45699,53.0525,0.000745,15.41183325,437.53429269052504,447.69721429322817,1 45699U 20035AU  25255.56795797  .00054358  00000+0  12899-2 0  9992,2 45699  53.0525  89.5089 0007450 106.0444 254.1381 15.41183325292683
STARLINK-1400,45700,53.0533,0.0001354,15.06398329,546.2789864291635,548.1543722055221,1 45700U 20035AV  25254.84014189  .00004548  00000+0  32405-3 0  9996,2 45700  53.0533 119.5076 0001354  90.6836 269.4308 15.06398329292192
STARLINK-1403,45701,53.056,0.0001435,15.06396572,546.2282752587544,548.2158533102038,1 45701U 20035AW  25254.93597380  .00000177  00000+0  30755-4 0  9997,2 45701  53.0560 119.0777 0001435  94.7181 265.3972 15.06396572292206
STARLINK-1407,45703,53.0451,0.0006655,15.33188792,461.7505988471594,470.86055191499054,1 45703U 20035AY  25255.52106838  .00062890  00000+0  19281-2 0  9998,2 45703  53.0451  85.6492 0006655 185.6183 174.4744 15.33188792292738
STARLINK-1411,45706,53.0541,0.0001796,15.26409252,485.324078170388,487.7898762470013,1 45706U 20035BB  25255.58335648  .00077219  00000+0  29100-2 0  9992,2 45706  53.0541 111.2059 0001796 111.8088  81.2760 15.26409252  5770
STARLINK-1423,45710,53.0541,0.0001408,15.06396149,546.2482699849852,548.1984514625665,1 45710U 20035BF  25255.62524465  .00000542  00000+0  55283-4 0  9997,2 45710  53.0541 115.9839 0001408  87.4835 272.6315 15.06396149292318
STARLINK-1433,45711,53.0543,0.0001231,15.06429536,546.268536567085,547.973535095507,1 45711U 20035BG  25255.60680448 -.00008392  00000+0 -54472-3 0  9991,2 45711  53.0543 116.0652 0001231  77.3808 282.7318 15.06429536292309
STARLINK-1434,45712,53.0517,0.0004521,15.10841826,530.5065542634693,536.7561752188685,1 45712U 20035BH  25254.92697232  .00018282  00000+0  11016-2 0  9998,2 45712  53.0517 117.5925 0004521  84.8285 275.3222 15.10841826292236
